OBJECT_NAME,OBJECT_ID,EPOCH,MEAN_MOTION,ECCENTRICITY,INCLINATION,RA_OF_ASC_NODE,ARG_OF_PERICENTER,MEAN_ANOMALY,EPHEMERIS_TYPE,CLASSIFICATION_TYPE,NORAD_CAT_ID,ELEMENT_SET_NO,REV_AT_EPOCH,BSTAR,MEAN_MOTION_DOT,MEAN_MOTION_DDOT
TEVEL2-7,2025-052AE,2026-06-05T10:28:01.709760,15.31236048,.00066809,97.3949,51.7085,165.6962,194.4470,0,U,63238,999,6822,.49200242E-3,.14789E-3,0
TEVEL2-8,2025-052AF,2026-06-04T15:50:28.971456,15.31195553,.00065639,97.3951,50.9120,168.5625,191.5767,0,U,63239,999,6810,.59749177E-3,.17961E-3,0
FORESAIL-1 PRIME,2025-276DS,2026-06-05T11:10:45.406848,15.18591217,.00035864,97.4201,229.9519,127.4958,232.6603,0,U,66778,999,2862,.24747125E-3,.5051E-4,0
